[{"OBJECT_NAME":"STARLINK-34140","OBJECT_ID":"2025-107X","EPOCH":"2026-03-09T09:17:18.083904","MEAN_MOTION":15.27598758,"ECCENTRICITY":9.457e-5,"INCLINATION":42.9957,"RA_OF_ASC_NODE":203.2944,"ARG_OF_PERICENTER":152.0067,"MEAN_ANOMALY":208.0836,"EPHEMERIS_TYPE":0,"CLASSIFICATION_TYPE":"U","NORAD_CAT_ID":64085,"ELEMENT_SET_NO":999,"REV_AT_EPOCH":4605,"BSTAR":0.00082798546,"MEAN_MOTION_DOT":0.00022605,"MEAN_MOTION_DDOT":0},{"OBJECT_NAME":"CXBN","OBJECT_ID":"2012-048E","EPOCH":"2026-03-09T15:19:34.514688","MEAN_MOTION":15.19824857,"ECCENTRICITY":0.0107387,"INCLINATION":64.6612,"RA_OF_ASC_NODE":146.5396,"ARG_OF_PERICENTER":203.7806,"MEAN_ANOMALY":155.8339,"EPHEMERIS_TYPE":0,"CLASSIFICATION_TYPE":"U","NORAD_CAT_ID":38762,"ELEMENT_SET_NO":999,"REV_AT_EPOCH":10314,"BSTAR":0.00060054,"MEAN_MOTION_DOT":0.00014901,"MEAN_MOTION_DDOT":0}]
